ZACUBE-1 (TSHEPISOSAT)  
1 39417U 13066B   25179.84000062  .00003460  00000+0  30163-3 0  9992
2 39417  97.7819 136.7533 0043716 350.5640   9.4755 14.96812578627791
GOMX-1                  
1 39430U 13066Q   25179.84836506  .00001301  00000+0  20746-3 0  9995
2 39430  97.6818  37.3287 0133462 130.3364 230.9591 14.67699325618230
CUBEBUG-2 (LO-74)       
1 39440U 13066AA  25179.81715846  .00001953  00000+0  20080-3 0  9990
2 39440  97.8500 124.2456 0063383 115.8904 244.8866 14.90032220625505
FUNCUBE-1 (AO-73)       
1 39444U 13066AE  25179.32792708  .00004141  00000+0  31066-3 0  9990
2 39444  97.7807 141.3171 0041278 325.0972  34.7547 15.02540685626406
UWE-3                   
1 39446U 13066AG  25179.43693546  .00002498  00000+0  23901-3 0  9996
2 39446  97.8249 130.2569 0054556  57.5237 303.1239 14.93022937624729
UNISAT-6                
1 40012U 14033C   25179.41091844  .00001997  00000+0  23375-3 0  9991
2 40012  97.7444 335.0793 0048510 151.5931 208.7944 14.85315152593597
DUCHIFAT-1              
1 40021U 14033M   25179.57035884  .00013217  00000+0  46866-3 0  9998
2 40021  98.0935 195.5664 0006998 241.7373 118.3159 15.29211556601224
QB50P1                  
1 40025U 14033R   25179.48676847  .00005087  00000+0  31086-3 0  9996
2 40025  98.0837 163.1335 0010150   2.0052 358.1215 15.10727504599499
LILACSAT-2              
1 40908U 15049K   25179.85393210  .00007900  00000+0  20454-3 0  9998
2 40908  97.5044 200.6691 0011085  92.9539 267.2975 15.39280808541190
LAPAN-A2 (IO-86)        
1 40931U 15052B   25151.18580175  .00001241  00000+0  78118-4 0  9995
2 40931   6.0006  24.0987 0012733 338.8432  21.1169 14.78805930523047
FOX-1A (AO-85)          
1 40967U 15058D   25179.61834679  .00003173  00000+0  28741-3 0  9991
2 40967  64.7771 295.5090 0158363 189.3151 170.5017 14.88162404 60908
CAS-2T & KS-1Q          
1 41847U 16066G   25179.88321247  .00001268  00000+0  18724-3 0  9993
2 41847  98.4197 254.1768 0347071 120.0492 243.5604 14.43540161453800
ZHUHAI-1 02 (CAS-4B)    
1 42759U 17034B   25179.55608326  .00050039  00000+0  48068-3 0  9996
2 42759  43.0044 208.5803 0019326  60.3914 299.8874 15.65568881445579
ZHUHAI-1 01 (CAS-4A)    
1 42761U 17034D   25179.76422058  .00055464  00000+0  50174-3 0  9996
2 42761  43.0081 204.2714 0020384  66.7527 293.5483 15.66990030445633
