[
  {
    "OBJECT_NAME": "ZACUBE-1 (TSHEPISOSAT)",
    "OBJECT_ID": "2013-066B",
    "EPOCH": "2025-06-28T20:09:36.053568",
    "MEAN_MOTION": 14.96812578,
    "ECCENTRICITY": 0.0043716,
    "INCLINATION": 97.7819,
    "RA_OF_ASC_NODE": 136.7533,
    "ARG_OF_PERICENTER": 350.564,
    "MEAN_ANOMALY": 9.4755,
    "EPHEMERIS_TYPE": 0,
    "CLASSIFICATION_TYPE": "U",
    "NORAD_CAT_ID": 39417,
    "ELEMENT_SET_NO": 999,
    "REV_AT_EPOCH": 62779,
    "BSTAR": 0.00030163,
    "MEAN_MOTION_DOT": 3.46e-05,
    "MEAN_MOTION_DDOT": 0
  },
  {
    "OBJECT_NAME": "GOMX-1",
    "OBJECT_ID": "2013-066Q",
    "EPOCH": "2025-06-28T20:21:38.741184",
    "MEAN_MOTION": 14.67699325,
    "ECCENTRICITY": 0.0133462,
    "INCLINATION": 97.6818,
    "RA_OF_ASC_NODE": 37.3287,
    "ARG_OF_PERICENTER": 130.3364,
    "MEAN_ANOMALY": 230.9591,
    "EPHEMERIS_TYPE": 0,
    "CLASSIFICATION_TYPE": "U",
    "NORAD_CAT_ID": 39430,
    "ELEMENT_SET_NO": 999,
    "REV_AT_EPOCH": 61823,
    "BSTAR": 0.00020746,
    "MEAN_MOTION_DOT": 1.301e-05,
    "MEAN_MOTION_DDOT": 0
  },
  {
    "OBJECT_NAME": "CUBEBUG-2 (LO-74)",
    "OBJECT_ID": "2013-066AA",
    "EPOCH": "2025-06-28T19:36:42.490944",
    "MEAN_MOTION": 14.9003222,
    "ECCENTRICITY": 0.0063383,
    "INCLINATION": 97.85,
    "RA_OF_ASC_NODE": 124.2456,
    "ARG_OF_PERICENTER": 115.8904,
    "MEAN_ANOMALY": 244.8866,
    "EPHEMERIS_TYPE": 0,
    "CLASSIFICATION_TYPE": "U",
    "NORAD_CAT_ID": 39440,
    "ELEMENT_SET_NO": 999,
    "REV_AT_EPOCH": 62550,
    "BSTAR": 0.0002008,
    "MEAN_MOTION_DOT": 1.953e-05,
    "MEAN_MOTION_DDOT": 0
  },
  {
    "OBJECT_NAME": "FUNCUBE-1 (AO-73)",
    "OBJECT_ID": "2013-066AE",
    "EPOCH": "2025-06-28T07:52:12.899712",
    "MEAN_MOTION": 15.02540685,
    "ECCENTRICITY": 0.0041278,
    "INCLINATION": 97.7807,
    "RA_OF_ASC_NODE": 141.3171,
    "ARG_OF_PERICENTER": 325.0972,
    "MEAN_ANOMALY": 34.7547,
    "EPHEMERIS_TYPE": 0,
    "CLASSIFICATION_TYPE": "U",
    "NORAD_CAT_ID": 39444,
    "ELEMENT_SET_NO": 999,
    "REV_AT_EPOCH": 62640,
    "BSTAR": 0.00031066,
    "MEAN_MOTION_DOT": 4.141e-05,
    "MEAN_MOTION_DDOT": 0
  },
  {
    "OBJECT_NAME": "UWE-3",
    "OBJECT_ID": "2013-066AG",
    "EPOCH": "2025-06-28T10:29:11.223744",
    "MEAN_MOTION": 14.93022937,
    "ECCENTRICITY": 0.0054556,
    "INCLINATION": 97.8249,
    "RA_OF_ASC_NODE": 130.2569,
    "ARG_OF_PERICENTER": 57.5237,
    "MEAN_ANOMALY": 303.1239,
    "EPHEMERIS_TYPE": 0,
    "CLASSIFICATION_TYPE": "U",
    "NORAD_CAT_ID": 39446,
    "ELEMENT_SET_NO": 999,
    "REV_AT_EPOCH": 62472,
    "BSTAR": 0.00023901,
    "MEAN_MOTION_DOT": 2.498e-05,
    "MEAN_MOTION_DDOT": 0
  },
  {
    "OBJECT_NAME": "UNISAT-6",
    "OBJECT_ID": "2014-033C",
    "EPOCH": "2025-06-28T09:51:43.353216",
    "MEAN_MOTION": 14.85315152,
    "ECCENTRICITY": 0.004851,
    "INCLINATION": 97.7444,
    "RA_OF_ASC_NODE": 335.0793,
    "ARG_OF_PERICENTER": 151.5931,
    "MEAN_ANOMALY": 208.7944,
    "EPHEMERIS_TYPE": 0,
    "CLASSIFICATION_TYPE": "U",
    "NORAD_CAT_ID": 40012,
    "ELEMENT_SET_NO": 999,
    "REV_AT_EPOCH": 59359,
    "BSTAR": 0.00023375,
    "MEAN_MOTION_DOT": 1.997e-05,
    "MEAN_MOTION_DDOT": 0
  },
  {
    "OBJECT_NAME": "DUCHIFAT-1",
    "OBJECT_ID": "2014-033M",
    "EPOCH": "2025-06-28T13:41:19.003776",
    "MEAN_MOTION": 15.29211556,
    "ECCENTRICITY": 0.0006998,
    "INCLINATION": 98.0935,
    "RA_OF_ASC_NODE": 195.5664,
    "ARG_OF_PERICENTER": 241.7373,
    "MEAN_ANOMALY": 118.3159,
    "EPHEMERIS_TYPE": 0,
    "CLASSIFICATION_TYPE": "U",
    "NORAD_CAT_ID": 40021,
    "ELEMENT_SET_NO": 999,
    "REV_AT_EPOCH": 60122,
    "BSTAR": 0.00046866,
    "MEAN_MOTION_DOT": 0.00013217,
    "MEAN_MOTION_DDOT": 0
  },
  {
    "OBJECT_NAME": "QB50P1",
    "OBJECT_ID": "2014-033R",
    "EPOCH": "2025-06-28T11:40:56.795808",
    "MEAN_MOTION": 15.10727504,
    "ECCENTRICITY": 0.001015,
    "INCLINATION": 98.0837,
    "RA_OF_ASC_NODE": 163.1335,
    "ARG_OF_PERICENTER": 2.0052,
    "MEAN_ANOMALY": 358.1215,
    "EPHEMERIS_TYPE": 0,
    "CLASSIFICATION_TYPE": "U",
    "NORAD_CAT_ID": 40025,
    "ELEMENT_SET_NO": 999,
    "REV_AT_EPOCH": 59949,
    "BSTAR": 0.00031086,
    "MEAN_MOTION_DOT": 5.087e-05,
    "MEAN_MOTION_DDOT": 0
  },
  {
    "OBJECT_NAME": "LILACSAT-2",
    "OBJECT_ID": "2015-049K",
    "EPOCH": "2025-06-28T20:29:39.733440",
    "MEAN_MOTION": 15.39280808,
    "ECCENTRICITY": 0.0011085,
    "INCLINATION": 97.5044,
    "RA_OF_ASC_NODE": 200.6691,
    "ARG_OF_PERICENTER": 92.9539,
    "MEAN_ANOMALY": 267.2975,
    "EPHEMERIS_TYPE": 0,
    "CLASSIFICATION_TYPE": "U",
    "NORAD_CAT_ID": 40908,
    "ELEMENT_SET_NO": 999,
    "REV_AT_EPOCH": 54119,
    "BSTAR": 0.00020454,
    "MEAN_MOTION_DOT": 7.9e-05,
    "MEAN_MOTION_DDOT": 0
  },
  {
    "OBJECT_NAME": "LAPAN-A2 (IO-86)",
    "OBJECT_ID": "2015-052B",
    "EPOCH": "2025-05-31T04:27:33.271200",
    "MEAN_MOTION": 14.7880593,
    "ECCENTRICITY": 0.0012733,
    "INCLINATION": 6.0006,
    "RA_OF_ASC_NODE": 24.0987,
    "ARG_OF_PERICENTER": 338.8432,
    "MEAN_ANOMALY": 21.1169,
    "EPHEMERIS_TYPE": 0,
    "CLASSIFICATION_TYPE": "U",
    "NORAD_CAT_ID": 40931,
    "ELEMENT_SET_NO": 999,
    "REV_AT_EPOCH": 52304,
    "BSTAR": 7.8118e-05,
    "MEAN_MOTION_DOT": 1.241e-05,
    "MEAN_MOTION_DDOT": 0
  },
  {
    "OBJECT_NAME": "FOX-1A (AO-85)",
    "OBJECT_ID": "2015-058D",
    "EPOCH": "2025-06-28T14:50:25.162656",
    "MEAN_MOTION": 14.88162404,
    "ECCENTRICITY": 0.0158363,
    "INCLINATION": 64.7771,
    "RA_OF_ASC_NODE": 295.509,
    "ARG_OF_PERICENTER": 189.3151,
    "MEAN_ANOMALY": 170.5017,
    "EPHEMERIS_TYPE": 0,
    "CLASSIFICATION_TYPE": "U",
    "NORAD_CAT_ID": 40967,
    "ELEMENT_SET_NO": 999,
    "REV_AT_EPOCH": 6090,
    "BSTAR": 0.00028741,
    "MEAN_MOTION_DOT": 3.173e-05,
    "MEAN_MOTION_DDOT": 0
  },
  {
    "OBJECT_NAME": "CAS-2T & KS-1Q",
    "OBJECT_ID": "2016-066G",
    "EPOCH": "2025-06-28T21:11:49.557408",
    "MEAN_MOTION": 14.43540161,
    "ECCENTRICITY": 0.0347071,
    "INCLINATION": 98.4197,
    "RA_OF_ASC_NODE": 254.1768,
    "ARG_OF_PERICENTER": 120.0492,
    "MEAN_ANOMALY": 243.5604,
    "EPHEMERIS_TYPE": 0,
    "CLASSIFICATION_TYPE": "U",
    "NORAD_CAT_ID": 41847,
    "ELEMENT_SET_NO": 999,
    "REV_AT_EPOCH": 45380,
    "BSTAR": 0.00018724,
    "MEAN_MOTION_DOT": 1.268e-05,
    "MEAN_MOTION_DDOT": 0
  },
  {
    "OBJECT_NAME": "ZHUHAI-1 02 (CAS-4B)",
    "OBJECT_ID": "2017-034B",
    "EPOCH": "2025-06-28T13:20:45.593664",
    "MEAN_MOTION": 15.65568881,
    "ECCENTRICITY": 0.0019326,
    "INCLINATION": 43.0044,
    "RA_OF_ASC_NODE": 208.5803,
    "ARG_OF_PERICENTER": 60.3914,
    "MEAN_ANOMALY": 299.8874,
    "EPHEMERIS_TYPE": 0,
    "CLASSIFICATION_TYPE": "U",
    "NORAD_CAT_ID": 42759,
    "ELEMENT_SET_NO": 999,
    "REV_AT_EPOCH": 44557,
    "BSTAR": 0.00048068,
    "MEAN_MOTION_DOT": 0.00050039,
    "MEAN_MOTION_DDOT": 0
  },
  {
    "OBJECT_NAME": "ZHUHAI-1 01 (CAS-4A)",
    "OBJECT_ID": "2017-034D",
    "EPOCH": "2025-06-28T18:20:28.658112",
    "MEAN_MOTION": 15.6699003,
    "ECCENTRICITY": 0.0020384,
    "INCLINATION": 43.0081,
    "RA_OF_ASC_NODE": 204.2714,
    "ARG_OF_PERICENTER": 66.7527,
    "MEAN_ANOMALY": 293.5483,
    "EPHEMERIS_TYPE": 0,
    "CLASSIFICATION_TYPE": "U",
    "NORAD_CAT_ID": 42761,
    "ELEMENT_SET_NO": 999,
    "REV_AT_EPOCH": 44563,
    "BSTAR": 0.00050174,
    "MEAN_MOTION_DOT": 0.00055464,
    "MEAN_MOTION_DDOT": 0
  }
]